GLOBALSTAR M069         
1 31573U 07020C   26158.62179558 -.00000067  00000+0  23762-3 0  9999
2 31573  52.0043 279.2001 0002526 128.3228 245.2231 12.23470931877639
GLOBALSTAR M072         
1 31574U 07020D   26158.68263000 -.00000070  00000+0  18754-3 0  9991
2 31574  51.9908 125.5485 0001373 305.8109 226.1194 11.91658475873846
GLOBALSTAR M066         
1 32265U 07048C   26158.51482240 -.00000114  00000+0 -16082-3 0  9992
2 32265  51.9585  85.6777 0005310  23.0245 147.8862 12.30388828859032
GLOBALSTAR M079         
1 37188U 10054A   26158.65842485 -.00000096  00000+0  46031-4 0  9994
2 37188  52.0015 137.6762 0000480 359.2844 172.2088 12.62265961721346
GLOBALSTAR M074         
1 37189U 10054B   26158.68493006 -.00000099  00000+0  25059-4 0  9999
2 37189  51.9992 136.8619 0000330  45.0577 127.0870 12.62268423721958
GLOBALSTAR M076         
1 37190U 10054C   26158.71101483 -.00000097  00000+0  36580-4 0  9999
2 37190  52.0006 136.9844 0000531  30.8822 140.1544 12.62261839721674
GLOBALSTAR M077         
1 37191U 10054D   26158.43686784 -.00000079  00000+0 -16721-4 0  9997
2 37191  51.9933 204.0447 0002894 154.9763 218.1900 11.67547651720005
GLOBALSTAR M075         
1 37192U 10054E   26158.80372235 -.00000107  00000+0 -18387-4 0  9994
2 37192  51.9921 178.7641 0000063 156.1139  16.1029 12.62267315720755
GLOBALSTAR M073         
1 37193U 10054F   26158.56614507 -.00000092  00000+0  64891-4 0  9992
2 37193  52.0058  93.5780 0000731  28.4102 142.3845 12.62262154722712
GLOBALSTAR M083         
1 37739U 11033A   26158.42058457 -.00000097  00000+0  36675-4 0  9991
2 37739  51.9871  42.2635 0000820  52.8855 117.5416 12.62262897691711
GLOBALSTAR M088         
1 37740U 11033B   26158.67668751 -.00000087  00000+0  92867-4 0  9998
2 37740  52.0229 307.8900 0000847 112.0971 260.8863 12.62268547687298
GLOBALSTAR M091         
1 37741U 11033C   26158.61058075 -.00000083  00000+0  11351-3 0  9999
2 37741  52.0005 271.0703 0000522 129.9045 243.6318 12.62263763688079
GLOBALSTAR M085         
1 37742U 11033D   26158.43912617 -.00000093  00000+0  57359-4 0  9991
2 37742  52.0114 222.8763 0000219 176.1217 198.0202 12.62263928688561
GLOBALSTAR M081         
1 37743U 11033E   26158.89607541 -.00000099  00000+0  24295-4 0  9998
2 37743  51.9944 223.9326 0000261 129.5850  41.5895 12.62264801688763
GLOBALSTAR M089         
1 37744U 11033F   26158.77708119 -.00000095  00000+0  47543-4 0  9996
2 37744  51.9904 178.4550 0000375 103.4413  67.5335 12.62266990689595
GLOBALSTAR M084         
1 38040U 11080A   26158.47357491 -.00000097  00000+0  35521-4 0  9993
2 38040  52.0025  46.8535 0001017  71.7344  99.3362 12.62267476667539
GLOBALSTAR M080         
1 38041U 11080B   26158.48862269 -.00000085  00000+0  10465-3 0  9995
2 38041  52.0075  48.5222 0000266  69.2205 300.2541 12.62269341667660
GLOBALSTAR M082         
1 38042U 11080C   26158.85798610 -.00000091  00000+0  72851-4 0  9990
2 38042  52.0098   2.8982 0000541  85.6173  93.2689 12.62269896668415
GLOBALSTAR M092         
1 38043U 11080D   26158.59254630 -.00000095  00000+0  46506-4 0  9993
2 38043  52.0082  94.1019 0000523  50.8220 120.2671 12.62266799666836
GLOBALSTAR M090         
1 38044U 11080E   26158.84809887 -.00000090  00000+0  76868-4 0  9991
2 38044  52.0144 356.8814 0000801  79.5657 293.3025 12.62268990668537
GLOBALSTAR M086         
1 38045U 11080F   26158.72616662 -.00000088  00000+0  88702-4 0  9993
2 38045  51.9917 357.1979 0001623  52.0914  26.7687 12.62286534668463
GLOBALSTAR M097         
1 39072U 13005A   26158.58146198 -.00000079  00000+0  13890-3 0  9994
2 39072  52.0062 272.5767 0000471 121.8429 238.2484 12.62247243615694
GLOBALSTAR M093         
1 39073U 13005B   26158.55481666 -.00000086  00000+0  97186-4 0  9993
2 39073  52.0111 266.0008 0000337 107.5188 252.5716 12.62265685615642
GLOBALSTAR M094         
1 39074U 13005C   26158.79229211 -.00000098  00000+0  30602-4 0  9999
2 39074  51.9930 179.4045 0000176 329.7677  30.3179 12.62268543617283
GLOBALSTAR M096         
1 39075U 13005D   26158.48900603 -.00000094  00000+0  55220-4 0  9996
2 39075  52.0064 229.1222 0000218 156.4154 203.6723 12.62265383616161
GLOBALSTAR M078         
1 39076U 13005E   26158.69952859 -.00000137  00000+0 -18768-3 0  9994
2 39076  51.9894 312.5020 0000591 190.9080 169.1774 12.62259561614812
GLOBALSTAR M095         
1 39077U 13005F   26158.72630631 -.00000086  00000+0  98734-4 0  9994
2 39077  52.0095 310.0115 0000394 120.3499 239.7407 12.62263382614675
GLOBALSTAR M087         
1 52888U 22064A   26158.50203906 -.00000089  00000+0  81021-4 0  9995
2 52888  51.9994  91.9376 0000554  17.0914 342.9972 12.62268904189915
